{
  "type": "FeatureCollection",
  "features": [
    {
      "type": "Feature",
      "properties": {
        "norad_id": 34750,
        "name": "COSMOS 2251 DEB",
        "group": "cosmos-2251-debris",
        "lat": 20.414191327779886,
        "lon": -147.73653034533112,
        "alt_km": 709.3756106498031,
        "timestamp": "2025-12-10T09:57:45.092930+00:00",
        "meta_object_name": "COSMOS 2251 DEB",
        "meta_object_id": "1993-036ZU",
        "meta_epoch": "2025-12-09T19:38:52.084032",
        "meta_mean_motion": 14.61275497,
        "meta_eccentricity": 0.0038992,
        "meta_inclination": 74.1082,
        "meta_ra_of_asc_node": 207.3119,
        "meta_arg_of_pericenter": 161.4678,
        "meta_mean_anomaly": 323.8218,
        "meta_ephemeris_type": 0,
        "meta_classification_type": "U",
        "meta_norad_cat_id": 34750,
        "meta_element_set_no": 999,
        "meta_rev_at_epoch": 88188,
        "meta_bstar": 0.0015707,
        "meta_mean_motion_dot": 7.814e-05,
        "meta_mean_motion_ddot": 0,
        "tle_line1": "1 34750U 93036ZU  25343.81865838  .00007814  00000+0  15707-2 0  9995",
        "tle_line2": "2 34750  74.1082 207.3119 0038992 161.4678 323.8218 14.61275497881886"
      },
      "geometry": {
        "type": "Point",
        "coordinates": [
          -147.73653034533112,
          20.414191327779886
        ]
      }
    },
    {
      "type": "Feature",
      "properties": {
        "norad_id": 34752,
        "name": "COSMOS 2251 DEB",
        "group": "cosmos-2251-debris",
        "lat": -19.782212962454,
        "lon": -168.74560047922756,
        "alt_km": 558.5727347859547,
        "timestamp": "2025-12-10T09:57:45.092940+00:00",
        "meta_object_name": "COSMOS 2251 DEB",
        "meta_object_id": "1993-036ZW",
        "meta_epoch": "2025-12-10T01:04:15.987072",
        "meta_mean_motion": 14.99826856,
        "meta_eccentricity": 0.0047835,
        "meta_inclination": 74.0135,
        "meta_ra_of_asc_node": 6.0894,
        "meta_arg_of_pericenter": 135.411,
        "meta_mean_anomaly": 225.0941,
        "meta_ephemeris_type": 0,
        "meta_classification_type": "U",
        "meta_norad_cat_id": 34752,
        "meta_element_set_no": 999,
        "meta_rev_at_epoch": 89809,
        "meta_bstar": 0.0012054,
        "meta_mean_motion_dot": 0.00015282,
        "meta_mean_motion_ddot": 0,
        "tle_line1": "1 34752U 93036ZW  25344.04462948  .00015282  00000+0  12054-2 0  9998",
        "tle_line2": "2 34752  74.0135   6.0894 0047835 135.4110 225.0941 14.99826856898097"
      },
      "geometry": {
        "type": "Point",
        "coordinates": [
          -168.74560047922756,
          -19.782212962454
        ]
      }
    },
    {
      "type": "Feature",
      "properties": {
        "norad_id": 34754,
        "name": "COSMOS 2251 DEB",
        "group": "cosmos-2251-debris",
        "lat": -47.22901050640365,
        "lon": -146.1294074488326,
        "alt_km": 746.8219978622792,
        "timestamp": "2025-12-10T09:57:45.092950+00:00",
        "meta_object_name": "COSMOS 2251 DEB",
        "meta_object_id": "1993-036ZY",
        "meta_epoch": "2025-12-09T19:42:51.443136",
        "meta_mean_motion": 14.40475673,
        "meta_eccentricity": 0.0029438,
        "meta_inclination": 74.0306,
        "meta_ra_of_asc_node": 233.0003,
        "meta_arg_of_pericenter": 349.6648,
        "meta_mean_anomaly": 123.4485,
        "meta_ephemeris_type": 0,
        "meta_classification_type": "U",
        "meta_norad_cat_id": 34754,
        "meta_element_set_no": 999,
        "meta_rev_at_epoch": 88091,
        "meta_bstar": 0.00036952,
        "meta_mean_motion_dot": 1.155e-05,
        "meta_mean_motion_ddot": 0,
        "tle_line1": "1 34754U 93036ZY  25343.82142874  .00001155  00000+0  36952-3 0  9996",
        "tle_line2": "2 34754  74.0306 233.0003 0029438 349.6648 123.4485 14.40475673880916"
      },
      "geometry": {
        "type": "Point",
        "coordinates": [
          -146.1294074488326,
          -47.22901050640365
        ]
      }
    },
    {
      "type": "Feature",
      "properties": {
        "norad_id": 34755,
        "name": "COSMOS 2251 DEB",
        "group": "cosmos-2251-debris",
        "lat": 73.48778237174376,
        "lon": 37.20941782223999,
        "alt_km": 1289.8306803296073,
        "timestamp": "2025-12-10T09:57:45.092960+00:00",
        "meta_object_name": "COSMOS 2251 DEB",
        "meta_object_id": "1993-036ZZ",
        "meta_epoch": "2025-12-09T14:51:16.004736",
        "meta_mean_motion": 13.50545635,
        "meta_eccentricity": 0.0408332,
        "meta_inclination": 73.9259,
        "meta_ra_of_asc_node": 295.0408,
        "meta_arg_of_pericenter": 315.4104,
        "meta_mean_anomaly": 225.7513,
        "meta_ephemeris_type": 0,
        "meta_classification_type": "U",
        "meta_norad_cat_id": 34755,
        "meta_element_set_no": 999,
        "meta_rev_at_epoch": 82481,
        "meta_bstar": 0.0027358,
        "meta_mean_motion_dot": 2.929e-05,
        "meta_mean_motion_ddot": 0,
        "tle_line1": "1 34755U 93036ZZ  25343.61893524  .00002929  00000+0  27358-2 0  9998",
        "tle_line2": "2 34755  73.9259 295.0408 0408332 315.4104 225.7513 13.50545635824812"
      },
      "geometry": {
        "type": "Point",
        "coordinates": [
          37.20941782223999,
          73.48778237174376
        ]
      }
    },
    {
      "type": "Feature",
      "properties": {
        "norad_id": 34756,
        "name": "COSMOS 2251 DEB",
        "group": "cosmos-2251-debris",
        "lat": -32.77042278296733,
        "lon": -61.16515604068953,
        "alt_km": 1174.9531974751271,
        "timestamp": "2025-12-10T09:57:45.092970+00:00",
        "meta_object_name": "COSMOS 2251 DEB",
        "meta_object_id": "1993-036AAA",
        "meta_epoch": "2025-12-08T18:16:00.051744",
        "meta_mean_motion": 13.67230677,
        "meta_eccentricity": 0.03448148,
        "meta_inclination": 74.0023,
        "meta_ra_of_asc_node": 110.912,
        "meta_arg_of_pericenter": 347.5917,
        "meta_mean_anomaly": 11.686,
        "meta_ephemeris_type": 0,
        "meta_classification_type": "U",
        "meta_norad_cat_id": 34756,
        "meta_element_set_no": 999,
        "meta_rev_at_epoch": 83367,
        "meta_bstar": 0.0014333065,
        "meta_mean_motion_dot": 1.792e-05,
        "meta_mean_motion_ddot": 0,
        "tle_line1": "1 34756U 93036AAA 25342.76111171  .00001792  00000+0  14333-2 0  9991",
        "tle_line2": "2 34756  74.0023 110.9120 0344814 347.5917  11.6860 13.67230677833678"
      },
      "geometry": {
        "type": "Point",
        "coordinates": [
          -61.16515604068953,
          -32.77042278296733
        ]
      }
    },
    {
      "type": "Feature",
      "properties": {
        "norad_id": 34758,
        "name": "COSMOS 2251 DEB",
        "group": "cosmos-2251-debris",
        "lat": 42.66521579788544,
        "lon": -41.53929305831458,
        "alt_km": 776.3047758500952,
        "timestamp": "2025-12-10T09:57:45.092980+00:00",
        "meta_object_name": "COSMOS 2251 DEB",
        "meta_object_id": "1993-036AAC",
        "meta_epoch": "2025-12-09T21:22:44.685408",
        "meta_mean_motion": 13.58054621,
        "meta_eccentricity": 0.0381027,
        "meta_inclination": 74.1074,
        "meta_ra_of_asc_node": 304.0817,
        "meta_arg_of_pericenter": 68.4859,
        "meta_mean_anomaly": 295.6418,
        "meta_ephemeris_type": 0,
        "meta_classification_type": "U",
        "meta_norad_cat_id": 34758,
        "meta_element_set_no": 999,
        "meta_rev_at_epoch": 82871,
        "meta_bstar": 0.0016499,
        "meta_mean_motion_dot": 1.899e-05,
        "meta_mean_motion_ddot": 0,
        "tle_line1": "1 34758U 93036AAC 25343.89079497  .00001899  00000+0  16499-2 0  9995",
        "tle_line2": "2 34758  74.1074 304.0817 0381027  68.4859 295.6418 13.58054621828712"
      },
      "geometry": {
        "type": "Point",
        "coordinates": [
          -41.53929305831458,
          42.66521579788544
        ]
      }
    },
    {
      "type": "Feature",
      "properties": {
        "norad_id": 34760,
        "name": "COSMOS 2251 DEB",
        "group": "cosmos-2251-debris",
        "lat": 35.11656225457323,
        "lon": 114.91582285157821,
        "alt_km": 880.265282634291,
        "timestamp": "2025-12-10T09:57:45.092990+00:00",
        "meta_object_name": "COSMOS 2251 DEB",
        "meta_object_id": "1993-036AAE",
        "meta_epoch": "2025-12-10T04:17:30.556032",
        "meta_mean_motion": 14.19557833,
        "meta_eccentricity": 0.0096666,
        "meta_inclination": 74.0629,
        "meta_ra_of_asc_node": 306.9295,
        "meta_arg_of_pericenter": 359.6209,
        "meta_mean_anomaly": 15.8877,
        "meta_ephemeris_type": 0,
        "meta_classification_type": "U",
        "meta_norad_cat_id": 34760,
        "meta_element_set_no": 999,
        "meta_rev_at_epoch": 86652,
        "meta_bstar": 0.00092814,
        "meta_mean_motion_dot": 2.026e-05,
        "meta_mean_motion_ddot": 0,
        "tle_line1": "1 34760U 93036AAE 25344.17882588  .00002026  00000+0  92814-3 0  9992",
        "tle_line2": "2 34760  74.0629 306.9295 0096666 359.6209  15.8877 14.19557833866520"
      },
      "geometry": {
        "type": "Point",
        "coordinates": [
          114.91582285157821,
          35.11656225457323
        ]
      }
    }
  ]
}